PROGRESS-MS 32          
1 65586U 25204A   25316.93497624  .00019039  00000+0  34560-3 0  9996
2 65586  51.6332 290.0154 0004115  64.1640 295.9773 15.49593679   274
CYGNUS NG-23            
1 65616U 25208A   25316.93497624  .00019039  00000+0  34560-3 0  9994
2 65616  51.6332 290.0154 0004115  64.1640 295.9773 15.49593679   223
DRAGONFLY               
1 65729U 98067XH  25317.14607606  .00168570  00000+0  18128-2 0  9995
2 65729  51.6293 286.1780 0004741 117.7600 242.3876 15.62653356  8526
1998-067XJ              
1 65730U 98067XJ  25317.10178595  .00536691  00000+0  31020-2 0  9992
2 65730  51.6255 284.3647 0011129 106.9362 253.2859 15.76481201  8548
1998-067XK              
1 65731U 98067XK  25317.12409926  .00105110  00000+0  12753-2 0  9990
2 65731  51.6324 286.7834 0005628  93.4194 266.7443 15.59769742  8515
RSP-03                  
1 65732U 98067XL  25317.16765654  .00141251  00000+0  16145-2 0  9993
2 65732  51.6301 286.3226 0006319  96.7198 263.4515 15.61173307  8535
GHS-01                  
1 65733U 98067XM  25317.13151792  .00186914  00000+0  19238-2 0  9994
2 65733  51.6307 286.0826 0005272 116.0346 244.1192 15.63707009  8534
YOTSUBA-KULOVER         
1 65941U 98067XN  25316.93381835  .00087807  00000+0  12828-2 0  9994
2 65941  51.6317 289.2597 0002631  50.7638 309.3586 15.54889681  5210
BOTAN                   
1 65942U 98067XP  25316.34186979  .00174749  00000+0  24082-2 0  9999
2 65942  51.6317 292.0571 0004789  62.0522 298.0954 15.56096331  5126
E-KAGAKU-1              
1 65943U 98067XQ  25316.93338684  .00087357  00000+0  12764-2 0  9999
2 65943  51.6325 289.2577 0004414  48.7295 311.4076 15.54883301  5217
HRC MONOBLOCK CAMERA    
1 66052U 98067XR  25317.11173986  .00046568  00000+0  77436-3 0  9991
2 66052  51.6317 288.9450 0004802  62.2782 297.8694 15.51576189  4233
HTV-X1                  
1 66174U 25241A   25316.93497624  .00019039  00000+0  34560-3 0  9991
2 66174  51.6332 290.0154 0004115  64.1640 295.9773 15.49593679  1459
